[{"OBJECT_NAME":"JILIN-1 KUANFU 01","OBJECT_ID":"2020-003A","EPOCH":"2026-03-09T21:54:33.175008","MEAN_MOTION":15.10079256,"ECCENTRICITY":0.00082994,"INCLINATION":97.5094,"RA_OF_ASC_NODE":144.8213,"ARG_OF_PERICENTER":285.3859,"MEAN_ANOMALY":74.6453,"EPHEMERIS_TYPE":0,"CLASSIFICATION_TYPE":"U","NORAD_CAT_ID":45016,"ELEMENT_SET_NO":999,"REV_AT_EPOCH":34034,"BSTAR":0.00024799476,"MEAN_MOTION_DOT":3.977e-5,"MEAN_MOTION_DDOT":0},{"OBJECT_NAME":"STARLINK-2338","OBJECT_ID":"2021-018G","EPOCH":"2026-03-09T17:13:02.131392","MEAN_MOTION":15.06405037,"ECCENTRICITY":0.00014277,"INCLINATION":53.0568,"RA_OF_ASC_NODE":231.4941,"ARG_OF_PERICENTER":85.5695,"MEAN_ANOMALY":274.5457,"EPHEMERIS_TYPE":0,"CLASSIFICATION_TYPE":"U","NORAD_CAT_ID":47793,"ELEMENT_SET_NO":999,"REV_AT_EPOCH":27687,"BSTAR":-2.4795202e-5,"MEAN_MOTION_DOT":-6.51e-6,"MEAN_MOTION_DDOT":0}]
